FOX-1CLIFF (AO-95)      
1 43770U 18099N   26133.13417852  .00006585  00000+0  25914-3 0  9991
2 43770  97.4410 193.5273 0010453 110.5919 249.6442 15.25925564407878
RANGE-A                 
1 43773U 18099R   26133.52797597  .00003293  00000+0  18947-3 0  9995
2 43773  97.3997 177.1245 0012104 106.1467 254.1097 15.13076070407256
SNUSAT-2                
1 43782U 18099AA  26133.14928334  .00004912  00000+0  22243-3 0  9991
2 43782  97.4089 187.0817 0011688  64.8128 295.4319 15.21281511407706
SNUGLITE                
1 43784U 18099AC  26133.40739590  .00006604  00000+0  25658-3 0  9999
2 43784  97.3900 188.0464 0004173  71.8486 288.3207 15.26390872408012
ITASAT                  
1 43786U 18099AE  26133.10365259  .00004108  00000+0  20143-3 0  9996
2 43786  97.4059 185.3231 0014352 113.5192 246.7551 15.18586233407580
EAGLET-I                
1 43790U 18099AJ  26133.12832925  .00002189  00000+0  12861-3 0  9997
2 43790  97.4262 183.7280 0012878 105.7937 254.4716 15.12660544407039
ESEO                    
1 43792U 18099AL  26133.38884766  .00001631  00000+0  12164-3 0  9994
2 43792  97.3998 172.2644 0013382  92.5865 267.6893 15.04134103406575
THEA                    
1 43796U 18099AQ  26133.18152894  .00009750  00000+0  30037-3 0  9995
2 43796  97.4463 202.5642 0008268  59.2624 300.9431 15.33798215407327
ASTROCAST 0.1           
1 43798U 18099AS  26133.16777828  .00019822  00000+0  39111-3 0  9998
2 43798  97.4391 210.6378 0003933 359.8739   0.2509 15.47207500409016
JY1SAT (JO-97)          
1 43803U 18099AX  26133.11013581  .00011290  00000+0  36177-3 0  9999
2 43803  97.4155 195.8505 0006376  50.5277 309.6528 15.32511515408253
SUOMI-100               
1 43804U 18099AY  26133.10471001  .00006879  00000+0  25739-3 0  9993
2 43804  97.4215 193.6469 0010987  52.5608 307.6629 15.27582009408068
CENTAURI-1              
1 43809U 18099BD  26133.09532623  .00003586  00000+0  18962-3 0  9996
2 43809  97.4250 185.5734 0015926  91.2912 269.0146 15.15989940407182
GLOBAL-2                
1 43812U 18099BG  26133.38402794  .00002135  00000+0  14087-3 0  9990
2 43812  97.3585 171.3454 0004157 274.7400  85.3355 15.08461197406666
SEAHAWK-1               
1 43820U 18099BQ  26133.10548934  .00005254  00000+0  23146-3 0  9997
2 43820  97.3989 186.1372 0009887  77.9113 282.3231 15.22207746407190
SAUDISAT 5A             
1 43831U 18102A   26133.51869244  .00003163  00000+0  11958-3 0  9994
2 43831  97.3091 195.7731 0008097 253.0104 107.0248 15.27679486410385
SAUDISAT 5B             
1 43833U 18102C   26133.47810184  .00002943  00000+0  11049-3 0  9996
2 43833  97.3195 198.7401 0008790 256.2791 103.7470 15.27954984410497
ISAT                    
1 43879U 18111D   26133.25203125  .00047050  00000+0  59047-3 0  9991
2 43879  97.5898  65.9546 0008217  82.2509 277.9680 15.59555918405717
UWE-4                   
1 43880U 18111E   26133.30495299  .00018936  00000+0  41701-3 0  9993
2 43880  97.5858  60.1511 0010673  91.3631 268.8840 15.43940846405392
D-STAR ONE (SPARROW)    
1 43881U 18111F   26133.38724431  .00075778  00000+0  74211-3 0  9994
2 43881  97.6124  71.1844 0007611 106.2614 253.9483 15.65842908405916
JILIN-1 09              
1 43943U 19005B   26133.49472545  .00002867  00000+0  13557-3 0  9999
2 43943  97.4719 228.7662 0002174 169.6990 190.4290 15.20194522403877
JILIN-1 10              
1 43946U 19005E   26133.49318488  .00003701  00000+0  14966-3 0  9990
2 43946  97.4760 232.3136 0009133  49.7593 310.4442 15.25329990404027
EGYPTSAT-A (MISRSAT-A)  
1 44047U 19008A   26133.48230964  .00000693  00000+0  11750-3 0  9992
2 44047  98.0056 198.7560 0001326  76.9307 283.2048 14.72266533388138
EMISAT                  
1 44078U 19018A   26133.49048172  .00000296  00000+0  10013-3 0  9996
2 44078  98.4669 192.4766 0017795 325.8587  34.1458 14.43670953375056
JILIN-1 GAOFEN 3A       
1 44312U 19032C   26133.53132241  .00005812  00000+0  19502-3 0  9990
2 44312  44.9751 187.5501 0003159 104.5299 255.5936 15.31863392382527
PROX-1                  
1 44339U 19036A   26132.90205644  .00008587  00000+0  84513-3 0  9997
2 44339  23.9965 349.7894 0006508 346.0021  14.0298 14.89761063368206
NPSAT1                  
1 44340U 19036B   26133.26227834  .00003315  00000+0  45377-3 0  9993
2 44340  23.9982  85.1555 0008015 174.6190 185.4393 14.74245091367333
FORMOSAT 7-3            
1 44343U 19036E   26132.95523759  .00003082  00000+0  16631-3 0  9998
2 44343  23.9991  60.9713 0000602 196.2566 163.7919 15.09526982377912
