OBJECT_NAME,OBJECT_ID,EPOCH,MEAN_MOTION,ECCENTRICITY,INCLINATION,RA_OF_ASC_NODE,ARG_OF_PERICENTER,MEAN_ANOMALY,EPHEMERIS_TYPE,CLASSIFICATION_TYPE,NORAD_CAT_ID,ELEMENT_SET_NO,REV_AT_EPOCH,BSTAR,MEAN_MOTION_DOT,MEAN_MOTION_DDOT
FOX-1CLIFF (AO-95),2018-099N,2026-05-13T03:13:13.024128,15.25925564,.0010453,97.4410,193.5273,110.5919,249.6442,0,U,43770,999,40787,.25914E-3,.6585E-4,0
RANGE-A,2018-099R,2026-05-13T12:40:17.123808,15.13076070,.0012104,97.3997,177.1245,106.1467,254.1097,0,U,43773,999,40725,.18947E-3,.3293E-4,0
SNUSAT-2,2018-099AA,2026-05-13T03:34:58.080576,15.21281511,.0011688,97.4089,187.0817,64.8128,295.4319,0,U,43782,999,40770,.22243E-3,.4912E-4,0
SNUGLITE,2018-099AC,2026-05-13T09:46:39.005760,15.26390872,.0004173,97.3900,188.0464,71.8486,288.3207,0,U,43784,999,40801,.25658E-3,.6604E-4,0
ITASAT,2018-099AE,2026-05-13T02:29:15.583776,15.18586233,.0014352,97.4059,185.3231,113.5192,246.7551,0,U,43786,999,40758,.20143E-3,.4108E-4,0
EAGLET-I,2018-099AJ,2026-05-13T03:04:47.647200,15.12660544,.0012878,97.4262,183.7280,105.7937,254.4716,0,U,43790,999,40703,.12861E-3,.2189E-4,0
ESEO,2018-099AL,2026-05-13T09:19:56.437824,15.04134103,.0013382,97.3998,172.2644,92.5865,267.6893,0,U,43792,999,40657,.12164E-3,.1631E-4,0
THEA,2018-099AQ,2026-05-13T04:21:24.100416,15.33798215,.0008268,97.4463,202.5642,59.2624,300.9431,0,U,43796,999,40732,.30037E-3,.975E-4,0
ASTROCAST 0.1,2018-099AS,2026-05-13T04:01:36.043392,15.47207500,.00039339,97.4391,210.6378,359.8739,0.2509,0,U,43798,999,40901,.39111472E-3,.19822E-3,0
JY1SAT (JO-97),2018-099AX,2026-05-13T02:38:35.733984,15.32511515,.00063769,97.4155,195.8505,50.5277,309.6528,0,U,43803,999,40825,.36177137E-3,.1129E-3,0
SUOMI-100,2018-099AY,2026-05-13T02:30:46.944864,15.27582009,.0010987,97.4215,193.6469,52.5608,307.6629,0,U,43804,999,40806,.25739E-3,.6879E-4,0
CENTAURI-1,2018-099BD,2026-05-13T02:17:16.186272,15.15989940,.0015926,97.4250,185.5734,91.2912,269.0146,0,U,43809,999,40718,.18962E-3,.3586E-4,0
GLOBAL-2,2018-099BG,2026-05-13T09:13:00.014016,15.08461197,.0004157,97.3585,171.3454,274.7400,85.3355,0,U,43812,999,40666,.14087E-3,.2135E-4,0
SEAHAWK-1,2018-099BQ,2026-05-13T02:31:54.278976,15.22207746,.0009887,97.3989,186.1372,77.9113,282.3231,0,U,43820,999,40719,.23146E-3,.5254E-4,0
SAUDISAT 5A,2018-102A,2026-05-13T12:26:55.026816,15.27679486,.0008097,97.3091,195.7731,253.0104,107.0248,0,U,43831,999,41038,.11958E-3,.3163E-4,0
SAUDISAT 5B,2018-102C,2026-05-13T11:28:27.998976,15.27954984,.000879,97.3195,198.7401,256.2791,103.7470,0,U,43833,999,41049,.11049E-3,.2943E-4,0
ISAT,2018-111D,2026-05-13T06:02:55.500000,15.59555918,.0008217,97.5898,65.9546,82.2509,277.9680,0,U,43879,999,40571,.59047E-3,.4705E-3,0
UWE-4,2018-111E,2026-05-13T07:19:07.938336,15.43940846,.0010673,97.5858,60.1511,91.3631,268.8840,0,U,43880,999,40539,.41701E-3,.18936E-3,0
D-STAR ONE (SPARROW),2018-111F,2026-05-13T09:17:37.908384,15.65842908,.0007611,97.6124,71.1844,106.2614,253.9483,0,U,43881,999,40591,.74211E-3,.75778E-3,0
JILIN-1 09,2019-005B,2026-05-13T11:52:24.278880,15.20194522,.0002174,97.4719,228.7662,169.6990,190.4290,0,U,43943,999,40387,.13557E-3,.2867E-4,0
JILIN-1 10,2019-005E,2026-05-13T11:50:11.173632,15.25329990,.0009133,97.4760,232.3136,49.7593,310.4442,0,U,43946,999,40402,.14966E-3,.3701E-4,0
EGYPTSAT-A (MISRSAT-A),2019-008A,2026-05-13T11:34:31.552896,14.72266533,.0001326,98.0056,198.7560,76.9307,283.2048,0,U,44047,999,38813,.1175E-3,.693E-5,0
EMISAT,2019-018A,2026-05-13T11:46:17.620608,14.43670953,.0017795,98.4669,192.4766,325.8587,34.1458,0,U,44078,999,37505,.10013E-3,.296E-5,0
JILIN-1 GAOFEN 3A,2019-032C,2026-05-13T12:45:06.256224,15.31863392,.0003159,44.9751,187.5501,104.5299,255.5936,0,U,44312,999,38252,.19502E-3,.5812E-4,0
PROX-1,2019-036A,2026-05-12T21:38:57.676416,14.89761063,.0006508,23.9965,349.7894,346.0021,14.0298,0,U,44339,999,36820,.84513E-3,.8587E-4,0
NPSAT1,2019-036B,2026-05-13T06:17:40.848576,14.74245091,.0008015,23.9982,85.1555,174.6190,185.4393,0,U,44340,999,36733,.45377E-3,.3315E-4,0
FORMOSAT 7-3,2019-036E,2026-05-12T22:55:32.527776,15.09526982,.00006026,23.9991,60.9713,196.2566,163.7919,0,U,44343,999,37791,.16631498E-3,.3082E-4,0
